KUIPER-00176            
1 65788U 25217AC  26025.53172001  .00004674  00000+0  64195-3 0  9993
2 65788  51.8971 233.9486 0000745 115.0666 245.0373 14.79915920 18485
KUIPER-00101            
1 65947U 25228A   26024.86841056  .00004969  00000+0  67999-3 0  9992
2 65947  51.8970 194.3628 0001081 114.4072 245.7003 14.79954273 16745
KUIPER-00113            
1 65948U 25228B   26025.17761032 -.00001939  00000+0 -22559-3 0  9992
2 65948  51.8972 188.0112 0000892  79.6821 280.4242 14.79900820 16851
KUIPER-00117            
1 65949U 25228C   26024.87108495  .00005613  00000+0  76468-3 0  9996
2 65949  51.8981 191.8707 0000610 115.0836 245.0190 14.79934736 16776
KUIPER-00121            
1 65950U 25228D   26025.00004630  .00003800  00000+0  52724-3 0  9995
2 65950  51.8980 186.2912 0001322 100.7488  17.5352 14.79931463  4535
KUIPER-00122            
1 65951U 25228E   26025.16957071  .00004857  00000+0  66558-3 0  9992
2 65951  51.8971 195.5212 0000875 151.7151 208.3859 14.79934363 16758
KUIPER-00123            
1 65952U 25228F   26025.20335020  .00004957  00000+0  67853-3 0  9992
2 65952  51.8977 195.3952 0000478 111.0270 249.0744 14.79945366 16754
KUIPER-00124            
1 65953U 25228G   26025.14387270  .00004296  00000+0  59191-3 0  9992
2 65953  51.8964 188.1450 0000352  99.8186 260.2816 14.79949121 16853
